[{"OBJECT_NAME":"YAOGAN-43 01D","OBJECT_ID":"2024-148D","EPOCH":"2026-03-09T10:27:16.254720","MEAN_MOTION":15.28369377,"ECCENTRICITY":0.00025569,"INCLINATION":35.001,"RA_OF_ASC_NODE":61.7102,"ARG_OF_PERICENTER":326.2473,"MEAN_ANOMALY":33.808,"EPHEMERIS_TYPE":0,"CLASSIFICATION_TYPE":"U","NORAD_CAT_ID":60461,"ELEMENT_SET_NO":999,"REV_AT_EPOCH":8700,"BSTAR":0.00037765912,"MEAN_MOTION_DOT":0.00010676,"MEAN_MOTION_DDOT":0},{"OBJECT_NAME":"STARLINK-35598","OBJECT_ID":"2025-263AA","EPOCH":"2026-03-09T03:53:23.535744","MEAN_MOTION":15.27556739,"ECCENTRICITY":0.00020717,"INCLINATION":43.0038,"RA_OF_ASC_NODE":354.0684,"ARG_OF_PERICENTER":272.3623,"MEAN_ANOMALY":87.6991,"EPHEMERIS_TYPE":0,"CLASSIFICATION_TYPE":"U","NORAD_CAT_ID":66509,"ELEMENT_SET_NO":999,"REV_AT_EPOCH":1881,"BSTAR":0.00090979892,"MEAN_MOTION_DOT":0.00024841,"MEAN_MOTION_DDOT":0}]
